GORIZONT 25             
1 21922U 92017A   12354.86199119 -.00000176  00000-0  10000-3 0  7081
2 21922  13.7111  28.6134 0027199 344.3666  15.5410  0.99857912 75745
GORIZONT 26             
1 22041U 92043A   12354.76761529 -.00000031  00000-0  10000-3 0  3426
2 22041  13.6335  30.0672 0031107 135.3413 224.8976  0.99243496 74591
GORIZONT 27             
1 22245U 92082A   12352.51821109 -.00000377  00000-0  10000-3 0  8470
2 22245  13.5472  30.7170 0011620 266.4095  93.4500  1.00171560 77768
GORIZONT 28             
1 22880U 93069A   12353.29042853  .00000050  00000-0  10000-3 0  7272
2 22880  13.1930  33.9538 0034348  35.2461 324.9705  0.99653935 70021
GORIZONT 29             
1 22907U 93072A   12352.17157598 -.00000035  00000-0  10000-3 0   586
2 22907  13.1555  33.8854 0009705 239.3953 120.4951  1.00115078 69839
GORIZONT 30             
1 23108U 94030A   12354.45954378 -.00000294  00000-0  10000-3 0  8652
2 23108  13.0377  34.9460 0001496  83.5052 276.4998  1.00248288 68086
GORIZONT 31             
1 23775U 96005A   12354.69656376  .00000071  00000-0  10000-3 0  3533
2 23775  12.1647  40.4023 0021481  99.3865 260.8264  0.99881849 61838
GORIZONT 32             
1 23880U 96034A   12353.39609447 -.00000300  00000-0  10000-3 0  1562
2 23880  12.0343  41.2420 0007584 249.1163 251.5401  1.00180156 60667
GORIZONT 33             
1 26372U 00029A   12352.33036007  .00000115  00000-0  10000-3 0   167
2 26372   9.4829  50.0776 0002529  16.3698 343.5805  1.00346368 45996
